GLOBALSTAR M068         
1 32266U 07048D   25182.46658148 -.00000052  00000+0  28511-3 0  9995
2 32266  51.9882 258.7302 0001432 158.8143 215.2402 12.62825576819368
GLOBALSTAR M079         
1 37188U 10054A   25182.53317439 -.00000088  00000+0  87669-4 0  9996
2 37188  52.0038  96.1136 0000685  24.6394 145.9612 12.62265246678263
GLOBALSTAR M074         
1 37189U 10054B   25182.15897889 -.00000086  00000+0  98105-4 0  9992
2 37189  52.0020  96.5751 0000768  47.4007 100.3214 12.62256974678821
GLOBALSTAR M076         
1 37190U 10054C   25182.50962645 -.00000089  00000+0  80451-4 0  9994
2 37190  52.0031  95.6782 0000845  38.4285 144.4462 12.62263355678581
GLOBALSTAR M077         
1 37191U 10054D   25182.41470396 -.00000096  00000+0  42220-4 0  9992
2 37191  52.0084  52.8283 0000826  66.9701 104.5665 12.62268709678949
GLOBALSTAR M075         
1 37192U 10054E   25182.18839899 -.00000085  00000+0  10325-3 0  9992
2 37192  51.9934 138.9056 0000342  35.3150  67.1099 12.62265864677614
GLOBALSTAR M073         
1 37193U 10054F   25182.12343873 -.00000087  00000+0  92634-4 0  9995
2 37193  52.0073  52.9330 0000866  57.9190 109.2343 12.62272280679595
GLOBALSTAR M083         
1 37739U 11033A   25182.41773823 -.00000077  00000+0  14725-3 0  9996
2 37739  51.9878   0.7507 0000672  95.0292 269.0024 12.62259585648657
GLOBALSTAR M088         
1 37740U 11033B   25182.55167497 -.00000087  00000+0  93903-4 0  9994
2 37740  52.0214 265.9205 0000615 142.3868 231.3220 12.62266392644219
GLOBALSTAR M091         
1 37741U 11033C   25182.40630713 -.00000109  00000+0 -30085-4 0  9993
2 37741  51.9979 229.8453 0000377 195.6416 177.6103 12.62269141644986
GLOBALSTAR M085         
1 37742U 11033D   25182.16977593 -.00000111  00000+0 -40529-4 0  9994
2 37742  51.9837 181.5887 0000182 268.1859 170.2574 12.62269583645461
GLOBALSTAR M081         
1 37743U 11033E   25182.26123075 -.00000106  00000+0 -10439-4 0  9995
2 37743  51.9930 184.1085 0000230 324.2281  48.5503 12.62266906645625
GLOBALSTAR M089         
1 37744U 11033F   25182.24923465 -.00000087  00000+0  96128-4 0  9991
2 37744  51.9913 138.3674 0000599  47.7946  91.7250 12.62265148646464
GLOBALSTAR M084         
1 38040U 11080A   25182.47396117 -.00000101  00000+0  13496-4 0  9990
2 38040  52.0027   4.9804 0001139  82.9966 297.3500 12.62266847624475
GLOBALSTAR M080         
1 38041U 11080B   25182.24102117 -.00000098  00000+0  31363-4 0  9999
2 38041  52.0082   7.2866 0000814 120.6727  50.1218 12.62263687624565
GLOBALSTAR M082         
1 38042U 11080C   25182.55247275 -.00000095  00000+0  51406-4 0  9996
2 38042  52.0091 321.8006 0000739 140.8695 296.6554 12.62266923625311
GLOBALSTAR M092         
1 38043U 11080D   25182.06681464 -.00000102  00000+0  11016-4 0  9997
2 38043  52.0097  53.6558 0000798  72.1483  77.2524 12.62264376623708
GLOBALSTAR M090         
1 38044U 11080E   25182.57935394 -.00000098  00000+0  32869-4 0  9991
2 38044  52.0141 315.5589 0000627 120.6223 320.4709 12.62273706625432
GLOBALSTAR M086         
1 38045U 11080F   25182.52556588 -.00000089  00000+0  84928-4 0  9994
2 38045  51.9915 316.2219 0000999  35.3863  41.5590 12.62272039625372
GLOBALSTAR M097         
1 39072U 13005A   25182.45604440 -.00000094  00000+0  52793-4 0  9998
2 39072  52.0034 230.9954 0000140 162.1837 197.9035 12.62265494572618
GLOBALSTAR M093         
1 39073U 13005B   25182.50889742 -.00000107  00000+0 -17014-4 0  9998
2 39073  51.9788 224.1150 0000149 197.5639 162.5222 12.62265857572571
GLOBALSTAR M094         
1 39074U 13005C   25182.58818173 -.00000100  00000+0  22473-4 0  9994
2 39074  51.9941 138.2682 0000450 354.5716   5.5146 12.62262829574191
GLOBALSTAR M096         
1 39075U 13005D   25182.04704007 -.00000114  00000+0 -57884-4 0  9996
2 39075  52.0043 188.4421 0000256 277.0925  82.9913 12.62265600573044
GLOBALSTAR M078         
1 39076U 13005E   25182.41657572 -.00000032  00000+0  39800-3 0  9997
2 39076  51.9875 271.8098 0001030 181.0595 179.0269 12.62258444571713
GLOBALSTAR M095         
1 39077U 13005F   25182.52199920 -.00000098  00000+0  33800-4 0  9995
2 39077  51.9809 268.6775 0000549 186.6167 173.4692 12.62267845571585
GLOBALSTAR M087         
1 52888U 22064A   25181.99844228 -.00000090  00000+0  78207-4 0  9995
2 52888  52.0007  51.7520 0000654  69.7920 290.3017 12.62263677146785
